{
  "type": "FeatureCollection",
  "generator": "overpass-ide",
  "copyright": "The data included in this document is from www.openstreetmap.org. The data is made available under ODbL.",
  "timestamp": "2020-12-18T09:54:02Z",
  "features": [
    {
      "type": "Feature",
      "properties": {
        "@id": "node/130237907",
        "addr:housenumber": "454",
        "addr:street": "Místecká",
        "amenity": "pharmacy",
        "contact:email": "lekbellis@tiscali.cz",
        "contact:phone": "+420 283 922 095",
        "healthcare": "pharmacy",
        "name": "Bellis",
        "opening_hours": "Mo-Fr 08:00-18:00",
        "ref": "9995005000"
      },
      "geometry": {
        "type": "Point",
        "coordinates": [
          14.5060424,
          50.1399995
        ]
      },
      "id": "node/130237907"
    },
    {
      "type": "Feature",
      "properties": {
        "@id": "node/279721860",
        "addr:housenumber": "454",
        "addr:street": "Místecká",
        "amenity": "doctors",
        "healthcare": "doctor"
      },
      "geometry": {
        "type": "Point",
        "coordinates": [
          14.5062333,
          50.140023
        ]
      },
      "id": "node/279721860"
    },
    {
      "type": "Feature",
      "properties": {
        "@id": "node/282739481",
        "addr:housenumber": "644",
        "addr:postcode": "19900",
        "addr:street": "Ostravská",
        "created_by": "Potlatch 0.10b",
        "name": "Pneuservis Fara",
        "name:cs": "Pneuservis Fara",
        "name:en": "Tyre servis Fara",
        "opening_hours": "Mo-Fr 08:00-17:00",
        "phone": "774 340 043",
        "shop": "car",
        "website": "https://pneufara.cz/"
      },
      "geometry": {
        "type": "Point",
        "coordinates": [
          14.5169419,
          50.1395289
        ]
      },
      "id": "node/282739481"
    },
    {
      "type": "Feature",
      "properties": {
        "@id": "node/285413399",
        "addr:conscriptionnumber": "678",
        "addr:housenumber": "678/2",
        "addr:place": "Letňany",
        "addr:postcode": "19000",
        "addr:red": "678",
        "addr:street": "Chotěšovská",
        "addr:streetnumber": "2",
        "ref:ruian:addr": "25769715"
      },
      "geometry": {
        "type": "Point",
        "coordinates": [
          14.5026758,
          50.1280944
        ]
      },
      "id": "node/285413399"
    },
    {
      "type": "Feature",
      "properties": {
        "@id": "node/285413999",
        "addr:conscriptionnumber": "678",
        "addr:housenumber": "678/4",
        "addr:place": "Letňany",
        "addr:postcode": "19000",
        "addr:red": "678",
        "addr:street": "Chotěšovská",
        "addr:streetnumber": "4",
        "ref:ruian:addr": "25781669"
      },
      "geometry": {
        "type": "Point",
        "coordinates": [
          14.5024355,
          50.1283035
        ]
      },
      "id": "node/285413999"
    },
    {
      "type": "Feature",
      "properties": {
        "@id": "node/285430737",
        "addr:housenumber": "?/228",
        "addr:streetnumber": "228",
        "created_by": "Potlatch 0.10b"
      },
      "geometry": {
        "type": "Point",
        "coordinates": [
          14.5094994,
          50.1278358
        ]
      },
      "id": "node/285430737"
    },
    {
      "type": "Feature",
      "properties": {
        "@id": "node/285438289",
        "addr:conscriptionnumber": "689",
        "addr:housenumber": "689",
        "addr:place": "Letňany",
        "addr:postcode": "19900",
        "addr:street": "Malkovského",
        "ref:ruian:addr": "26019396"
      },
      "geometry": {
        "type": "Point",
        "coordinates": [
          14.5097374,
          50.1422676
        ]
      },
      "id": "node/285438289"
    },
    {
      "type": "Feature",
      "properties": {
        "@id": "node/285438499",
        "addr:conscriptionnumber": "690",
        "addr:housenumber": "690",
        "addr:place": "Letňany",
        "addr:postcode": "19900",
        "addr:street": "Malkovského",
        "ref:ruian:addr": "26019388"
      },
      "geometry": {
        "type": "Point",
        "coordinates": [
          14.5082864,
          50.1423571
        ]
      },
      "id": "node/285438499"
    },
    {
      "type": "Feature",
      "properties": {
        "@id": "node/285443630",
        "addr:conscriptionnumber": "569",
        "addr:housenumber": "569",
        "addr:place": "Letňany",
        "addr:postcode": "19900",
        "addr:street": "Místecká",
        "ref:ruian:addr": "22497102"
      },
      "geometry": {
        "type": "Point",
        "coordinates": [
          14.5088975,
          50.1404918
        ]
      },
      "id": "node/285443630"
    },
    {
      "type": "Feature",
      "properties": {
        "@id": "node/285444121",
        "addr:conscriptionnumber": "567",
        "addr:housenumber": "567",
        "addr:place": "Letňany",
        "addr:postcode": "19900",
        "addr:street": "Místecká",
        "ref:ruian:addr": "22497081"
      },
      "geometry": {
        "type": "Point",
        "coordinates": [
          14.5083138,
          50.1405249
        ]
      },
      "id": "node/285444121"
    },
    {
      "type": "Feature",
      "properties": {
        "@id": "node/285775760",
        "addr:conscriptionnumber": "685",
        "addr:housenumber": "685/1",
        "addr:place": "Letňany",
        "addr:postcode": "19000",
        "addr:red": "685",
        "addr:street": "Terezínská",
        "addr:streetnumber": "1",
        "ref:ruian:addr": "25800825"
      },
      "geometry": {
        "type": "Point",
        "coordinates": [
          14.5009908,
          50.1277419
        ]
      },
      "id": "node/285775760"
    },
    {
      "type": "Feature",
      "properties": {
        "@id": "node/296622536",
        "addr:conscriptionnumber": "570",
        "addr:housenumber": "570",
        "addr:postcode": "19900",
        "addr:street": "Kuželova",
        "source:addr": "uir_adr",
        "uir_adr:ADRESA_KOD": "22497111"
      },
      "geometry": {
        "type": "Point",
        "coordinates": [
          14.5091048,
          50.1409033
        ]
      },
      "id": "node/296622536"
    },
    {
      "type": "Feature",
      "properties": {
        "@id": "node/296622861",
        "addr:conscriptionnumber": "143",
        "addr:housenumber": "143",
        "addr:postcode": "19900",
        "addr:street": "Běloveská",
        "source:addr": "uir_adr",
        "uir_adr:ADRESA_KOD": "22492909"
      },
      "geometry": {
        "type": "Point",
        "coordinates": [
          14.5065018,
          50.1446969
        ]
      },
      "id": "node/296622861"
    },
    {
      "type": "Feature",
      "properties": {
        "@id": "node/296626155",
        "addr:conscriptionnumber": "534",
        "addr:housenumber": "534",
        "addr:postcode": "19900",
        "addr:street": "Březnická",
        "source:addr": "uir_adr",
        "uir_adr:ADRESA_KOD": "22496751"
      },
      "geometry": {
        "type": "Point",
        "coordinates": [
          14.5099547,
          50.1404282
        ]
      },
      "id": "node/296626155"
    },
    {
      "type": "Feature",
      "properties": {
        "@id": "node/296627538",
        "addr:conscriptionnumber": "223",
        "addr:housenumber": "223",
        "addr:postcode": "19900",
        "addr:street": "Opočenská",
        "source:addr": "uir_adr",
        "uir_adr:ADRESA_KOD": "22493697"
      },
      "geometry": {
        "type": "Point",
        "coordinates": [
          14.5097374,
          50.1280136
        ]
      },
      "id": "node/296627538"
    },
    {
      "type": "Feature",
      "properties": {
        "@id": "node/296630934",
        "addr:conscriptionnumber": "161",
        "addr:housenumber": "161",
        "addr:postcode": "19900",
        "addr:street": "Choceňská",
        "source:addr": "uir_adr",
        "uir_adr:ADRESA_KOD": "22493085"
      },
      "geometry": {
        "type": "Point",
        "coordinates": [
          14.507721,
          50.1466933
        ]
      },
      "id": "node/296630934"
    },
    {
      "type": "Feature",
      "properties": {
        "@id": "node/296631067",
        "addr:conscriptionnumber": "636",
        "addr:housenumber": "636",
        "addr:place": "Letňany",
        "addr:postcode": "19900",
        "addr:street": "Ostravská",
        "ref:ruian:addr": "22497773"
      },
      "geometry": {
        "type": "Point",
        "coordinates": [
          14.5160373,
          50.1378064
        ]
      },
      "id": "node/296631067"
    },
    {
      "type": "Feature",
      "properties": {
        "@id": "node/296633330",
        "addr:conscriptionnumber": "95",
        "addr:housenumber": "95",
        "addr:postcode": "19900",
        "addr:street": "Boletická",
        "source:addr": "uir_adr",
        "uir_adr:ADRESA_KOD": "22492437"
      },
      "geometry": {
        "type": "Point",
        "coordinates": [
          14.5122627,
          50.1337431
        ]
      },
      "id": "node/296633330"
    },
    {
      "type": "Feature",
      "properties": {
        "@id": "node/296633387",
        "addr:conscriptionnumber": "294",
        "addr:housenumber": "294",
        "addr:postcode": "19900",
        "addr:street": "Tvrdého",
        "source:addr": "uir_adr",
        "uir_adr:ADRESA_KOD": "22494391"
      },
      "geometry": {
        "type": "Point",
        "coordinates": [
          14.5122072,
          50.135535
        ]
      },
      "id": "node/296633387"
    },
    {
      "type": "Feature",
      "properties": {
        "@id": "node/296636268",
        "addr:conscriptionnumber": "618",
        "addr:housenumber": "618",
        "addr:place": "Letňany",
        "addr:postcode": "19900",
        "addr:street": "Ostravská",
        "ref:ruian:addr": "22497595"
      },
      "geometry": {
        "type": "Point",
        "coordinates": [
          14.516379,
          50.1395362
        ]
      },
      "id": "node/296636268"
    },
    {
      "type": "Feature",
      "properties": {
        "@id": "node/296637216",
        "addr:conscriptionnumber": "177",
        "addr:housenumber": "177",
        "addr:postcode": "19900",
        "addr:street": "Březnická",
        "source:addr": "uir_adr",
        "uir_adr:ADRESA_KOD": "22493239"
      },
      "geometry": {
        "type": "Point",
        "coordinates": [
          14.5101078,
          50.1403055
        ]
      },
      "id": "node/296637216"
    },
    {
      "type": "Feature",
      "properties": {
        "@id": "node/296637613",
        "addr:conscriptionnumber": "324",
        "addr:housenumber": "324",
        "addr:postcode": "19900",
        "addr:street": "Kladrubská",
        "source:addr": "uir_adr",
        "uir_adr:ADRESA_KOD": "22494693"
      },
      "geometry": {
        "type": "Point",
        "coordinates": [
          14.5127749,
          50.140512
        ]
      },
      "id": "node/296637613"
    },
    {
      "type": "Feature",
      "properties": {
        "@id": "node/296638288",
        "addr:conscriptionnumber": "101",
        "addr:housenumber": "101",
        "addr:postcode": "19900",
        "addr:street": "Tvrdého",
        "source:addr": "uir_adr",
        "uir_adr:ADRESA_KOD": "22492496"
      },
      "geometry": {
        "type": "Point",
        "coordinates": [
          14.5129494,
          50.1365619
        ]
      },
      "id": "node/296638288"
    },
    {
      "type": "Feature",
      "properties": {
        "@id": "node/296639189",
        "addr:conscriptionnumber": "594",
        "addr:housenumber": "594",
        "addr:postcode": "19900",
        "addr:street": "Malkovského",
        "source:addr": "uir_adr",
        "uir_adr:ADRESA_KOD": "22497358"
      },
      "geometry": {
        "type": "Point",
        "coordinates": [
          14.5067181,
          50.1419334
        ]
      },
      "id": "node/296639189"
    },
    {
      "type": "Feature",
      "properties": {
        "@id": "node/296639444",
        "addr:conscriptionnumber": "419",
        "addr:housenumber": "419",
        "addr:postcode": "19900",
        "addr:street": "Vamberská",
        "source:addr": "uir_adr",
        "uir_adr:ADRESA_KOD": "22495614"
      },
      "geometry": {
        "type": "Point",
        "coordinates": [
          14.5120761,
          50.1392802
        ]
      },
      "id": "node/296639444"
    },
    {
      "type": "Feature",
      "properties": {
        "@id": "node/296641158",
        "addr:conscriptionnumber": "278",
        "addr:housenumber": "278",
        "addr:postcode": "19900",
        "addr:street": "Vamberská",
        "source:addr": "uir_adr",
        "uir_adr:ADRESA_KOD": "22494243"
      },
      "geometry": {
        "type": "Point",
        "coordinates": [
          14.5128971,
          50.1398694
        ]
      },
      "id": "node/296641158"
    },
    {
      "type": "Feature",
      "properties": {
        "@id": "node/296644020",
        "addr:conscriptionnumber": "341",
        "addr:housenumber": "341",
        "addr:postcode": "19900",
        "addr:street": "Velešínská",
        "source:addr": "uir_adr",
        "uir_adr:ADRESA_KOD": "22494847"
      },
      "geometry": {
        "type": "Point",
        "coordinates": [
          14.5109508,
          50.1409238
        ]
      },
      "id": "node/296644020"
    },
    {
      "type": "Feature",
      "properties": {
        "@id": "node/296647244",
        "addr:conscriptionnumber": "578",
        "addr:housenumber": "578",
        "addr:postcode": "19900",
        "addr:street": "Kuželova",
        "source:addr": "uir_adr",
        "uir_adr:ADRESA_KOD": "22497196"
      },
      "geometry": {
        "type": "Point",
        "coordinates": [
          14.5103515,
          50.1412494
        ]
      },
      "id": "node/296647244"
    },
    {
      "type": "Feature",
      "properties": {
        "@id": "node/296651307",
        "addr:conscriptionnumber": "239",
        "addr:housenumber": "239",
        "addr:postcode": "19900",
        "addr:street": "Opočenská",
        "source:addr": "uir_adr",
        "uir_adr:ADRESA_KOD": "22493859"
      },
      "geometry": {
        "type": "Point",
        "coordinates": [
          14.5092304,
          50.1277423
        ]
      },
      "id": "node/296651307"
    },
    {
      "type": "Feature",
      "properties": {
        "@id": "node/296652398",
        "addr:conscriptionnumber": "152",
        "addr:housenumber": "152",
        "addr:postcode": "19900",
        "addr:street": "Choceňská",
        "source:addr": "uir_adr",
        "uir_adr:ADRESA_KOD": "22492992"
      },
      "geometry": {
        "type": "Point",
        "coordinates": [
          14.5078577,
          50.1471136
        ]
      },
      "id": "node/296652398"
    },
    {
      "type": "Feature",
      "properties": {
        "@id": "node/296654763",
        "addr:conscriptionnumber": "624",
        "addr:housenumber": "624",
        "addr:place": "Letňany",
        "addr:postcode": "19900",
        "addr:street": "Ostravská",
        "ref:ruian:addr": "22497650"
      },
      "geometry": {
        "type": "Point",
        "coordinates": [
          14.5160975,
          50.1388974
        ]
      },
      "id": "node/296654763"
    },
    {
      "type": "Feature",
      "properties": {
        "@id": "node/296655173",
        "addr:conscriptionnumber": "371",
        "addr:housenumber": "371",
        "addr:postcode": "19900",
        "addr:street": "Místecká",
        "source:addr": "uir_adr",
        "uir_adr:ADRESA_KOD": "22495142"
      },
      "geometry": {
        "type": "Point",
        "coordinates": [
          14.5087727,
          50.1399434
        ]
      },
      "id": "node/296655173"
    }
  ]
}